COSMOS 2251 DEB         
1 34687U 93036YH  17345.84314796  .00001674  00000-0  14263-3 0  9998
2 34687  73.9243 131.7139 0096728 328.4114 154.5591 14.95199162475067
